CSS (TIANHE)            
1 48274U 21035A   23265.75332554  .00026041  00000+0  28403-3 0  9990
2 48274  41.4738 282.2934 0007917  84.4825 275.6917 15.62740349137086
